#dP2022 12 23  0  0  0.00000000      96 __u+U IGS14 FIT  IAC
## 2241 432000.00000000   900.00000000 59936 0.0000000000000
+  117   C06C07C08C09C10C11C12C13C14C16C19C20C21C22C23C24C25
+        C26C27C28C29C30C32C33C34C36C37C38C40C41C42C43C44C45
+        C46E01E02E03E04E05E07E08E09E10E11E12E13E14E15E18E19
+        E21E24E25E26E27E30E31E33E34E36G01G02G03G04G05G06G07
+        G08G09G10G11G12G13G14G15G16G17G18G19G20G21G22G23G24
+        G25G26G27G29G30G31G32J02J03J04R01R02R03R04R05R07R08
+        R09R11R12R13R14R15R16R17R18R19R20R21R22R24R25  0  0
++         8  8  7  7  8  7  7  7  7  7  6  6  6  6  6  6  6
++         6  6  6  6  6  6  6  6  6  6  7  7  6  6  6  6  6
++         6  5  4  4  5  4  4  4  4  4  5  4  4  5  4  5  4
++         5  4  4  4  5  4  4  4  4  4  4  4  4  4  4  4  3
++         4  4  4  4  3  3  4  3  4  4  3  4  4  4  4  4  3
++         3  4  4  4  3  4  4  9  9 10  8  7  7  6  7  7  7
++         7  7  7  8  7  9 10  7  7  8  8  7  0  7  8  0  0
%c M  cc GPS ccc cccc cccc cccc cccc ccccc ccccc ccccc ccccc
%c cc cc ccc ccc cccc cccc cccc cccc ccccc ccccc ccccc ccccc
%f  1.2500000  1.025000000  0.00000000000  0.000000000000000
%f  0.0000000  0.000000000  0.00000000000  0.000000000000000
%i    0    0    0    0      0      0      0      0         0
%i    0    0    0    0      0      0      0      0         0
/* INFORMATION & ANALYSIS CENTER (IAC)            FINAL DATA
/* S/V CLOCKS ARE ALIGNED TO GNSS TIME                      
/* G:C1WC2W R:C1PC2P E:C1XC5X C:C2IC6I J:C1CC2S             
/* PCV:IGS20_2239 OL/AL:FES2004  NONE     YN ORB:CoN CLK:CoN
*  2022 12 23 22  0  0.00000000
PC06 -13129.994917  40009.562561  -4035.283385    213.386466
PC07  -1008.209642  31805.590719 -27573.146086    118.667614
PC08 -14772.011888  21516.703625  33077.981159    524.735523
PC09  -9424.057738  39725.449195 -11183.059650   -775.882835
PC10   4806.551157  33560.338814 -24460.178339     45.963815
PC11   -849.076127  26387.760038   9076.151536   -218.822238
PC12 -11812.854624  23805.194755  -8454.845896    360.877225
PC13  -7039.179343  23161.061423  34626.165885    165.643202
PC14   9805.392721  22129.595947  13860.937523    295.199324
PC16 -15877.103490  39231.934887    354.465544     96.095145
PC19 -17399.652217 -21165.623401  -5303.969548   -901.383070
PC20  -2468.044241 -20162.630134 -19134.095621    794.883406
PC21 -15131.768843   6844.672860  22440.851333   -923.234483
PC22 -22985.800541 -10058.223940  12231.431776   -723.948601
PC23  25285.419579   1247.819245 -11756.048785   -870.976622
PC24 -10679.370466  17478.849174 -18955.274226   -635.274399
PC25  11969.190939  12601.675589 -21849.499854     44.182009
PC26 -24117.952274  12564.268813  -6187.548947    -54.113613
PC27  15358.878080 -17375.216886  15497.773824     70.755733
PC28  15944.525907   1617.874764  22852.501771     50.682098
PC29  -7565.735427 -21036.162565 -16702.965761     57.766319
PC30   5574.970294 -27331.387598    -60.303439      1.243255
PC32  15138.260868  -6890.284812 -22395.345272   -672.805608
PC33  17428.405742  21100.956586   5435.306279   -889.587175
PC34  -4832.310308  27469.960400   1222.950219     67.740671
PC36 -10952.247591 -13215.956428  22016.831759   -745.957422
PC37  25081.855565 -11258.697225   4884.957911   -871.060730
PC38 -21543.625775  22968.963990  27987.928136     47.036095
PC40  -5402.465218  26857.809248 -32006.214046    -10.864676
PC41  23062.716336  10475.988183 -11665.571430   -413.277984
PC42   1204.710774  19656.163469  19807.098124   -909.276997
PC43   7082.945974  21671.125060  16101.836173     31.654788
PC44 -14885.647119  17747.556635 -15593.976010    154.555131
PC45 -25403.099795   -923.633765  11473.926909    -38.477694
PC46   8856.091447 -17452.210001  19902.970984    -21.578328
PE01 -27627.352246    409.056596 -10598.170004   -582.721949
PE02  27538.845581   -621.157942  10866.282566     10.373393
PE03  16540.656696  -4120.393994 -24207.361236   -632.782941
PE04  -6400.272840  22842.288172  17708.159413    -20.587605
PE05  17182.282149  17477.730077 -16603.972770   -112.171574
PE07  -7770.579693 -28557.311790   -598.138235     -9.540179
PE08   6294.089371 -22780.151635 -17830.128310     -7.634109
PE09   7708.255426  28563.700498    794.188484   -774.581878
PE10 -10356.898147  23934.733097  13994.417396   -499.936454
PE11   -633.329927  20572.582545  21274.193863    138.338340
PE12 -17619.690198  23217.703037   5212.642458   -349.948529
PE13   1502.681900 -20973.038161 -20822.746520    430.261518
PE14  -3353.272355  24417.124740  -8343.531920     93.059329
PE15  17783.775696 -23148.599542  -4888.543557    698.948166
PE18  -7851.134771 -29866.152910  -4564.184891   -593.288582
PE19 -17146.754946    983.484899  24107.417258  -3668.101267
PE21 -26484.586687 -11391.381595   6678.370445   -502.077054
PE24   9111.351684  17814.890009 -21837.480224  -1018.278253
PE25  26351.111892  11560.884318  -6966.874382   -595.600375
PE26 -16168.191204  -5884.658177 -24074.409639  -1872.607462
PE27 -10136.103158 -17684.517317  21458.632101   -470.371241
PE30  12834.019019 -13153.187596  23199.880862  -1102.184255
PE31 -11984.720952  13504.435568 -23447.577077   -511.439447
PE33 -23447.836368  11660.864490 -13793.500474   -455.234910
PE34  23444.949451 -11838.692646  13662.729626    -21.152063
PE36  15473.430941   6539.903560  24379.042055   -479.789453
PG01  11176.191366 -20591.486477 -12480.212535    233.713837
PG02  -6993.601620  21751.159104  14353.592782   -631.421071
PG03   3501.667366 -14531.582381 -22081.000088   -374.960054
PG04   1512.664642 -25107.231656  -8358.168705    -62.863863
PG05 -18046.202892   7761.194496  17758.862684   -109.222706
PG06 -18801.753243    155.865442 -18723.084270    545.934541
PG07  -3366.008607 -16761.390822  20632.058564    270.027490
PG08   8306.449792 -17949.867841  17493.902105   -100.102693
PG09  -7621.292271 -25298.442257   2371.758863   -248.587693
PG10  23441.487069  11614.260365   5649.752722    -17.385230
PG11 -22732.897208  10283.256311  -9044.677412    -63.035220
PG12  -5692.831006  14093.972529 -22054.674664   -319.499905
PG13 -13168.603981  10654.473781  20231.839700    447.117064
PG14 -21719.489514 -13524.702129   7360.599627    -62.966797
PG15  -6241.472803  19244.345651  16618.548375     -1.544818
PG16  21529.563197  -2330.606528  15399.026845   -525.607774
PG17 -12379.405251 -18358.421276 -14162.743808    688.165841
PG18   5104.854059  14851.460235  21401.213123    -70.666855
PG19 -15022.384412  -7180.857953 -20982.900825    254.511469
PG20 -25173.881538   1899.461836   7906.667285    461.641238
PG21  16398.007591 -20086.850554  -2639.779098    153.098392
PG22  15246.250356   3632.427800 -21043.512322    390.905140
PG23  15636.356612  15361.023810  15098.293310      0.665849
PG24 -12626.510174  21875.080549  -7825.811759      2.131085
PG25   5933.459389  16786.709807 -20094.915151    404.804831
PG26  26143.572835   3462.883280   4332.162863    239.018883
PG27  13740.325603  -6401.230382  21549.200252    145.388576
PG29   3725.598761  26251.314717    338.886202   -575.989481
PG30 -14409.069814  -7950.329770  20974.109195   -534.852801
PG31  20323.093012  -1112.477412 -17463.268389   -204.174778
PG32  14829.474532  15100.480815 -16014.805356   -339.967837
PJ02 -29981.673920  14821.784505 -21087.482142     -0.388516
PJ03 -23698.088843  33686.209501  -4801.434495     -7.337205
PJ04 -26476.703246  26295.006571  25707.925206    116.108945
PR01  -5273.248586 -19227.618660 -15916.993415     20.049245
PR02 -15631.063278 -20017.867105   1965.930540    -23.367562
PR03 -16517.694223  -8482.287879  17498.582733     69.613626
PR04  -8052.929535   7243.556387  23119.424012    169.727627
PR05   4638.119305  19233.766251  16126.627233    105.041872
PR07  16335.499349   7955.952182 -17894.394080     46.661674
PR08   8014.090615  -7432.008942 -22992.843735    -68.663989
PR09  15162.345530   7450.147648 -19068.717462     94.663589
PR11  21282.053191  -8178.904894  11434.044156     12.614608
PR12   4001.322535 -11333.214670  22521.978899     23.839640
PR13 -13603.463900  -7938.975579  20042.910302    -30.233155
PR14 -25046.875137    731.249416   4815.308037     24.124166
PR15 -20705.385719   8368.577096 -12309.432228     92.167014
PR16  -4317.588590  11229.838357 -22491.420160      9.039520
PR17 -12379.449032   3158.693996 -22054.994634    589.524727
PR18 -13877.400024  18111.560949 -11434.876641     58.275984
PR19  -9516.578462  23354.769924   3823.346000   -215.636806
PR20   2829.893893  14918.299786  20523.723506    -84.516957
PR21  12833.442736  -4863.847803  21514.252292   -359.827270
PR22      0.000000      0.000000      0.000000 999999.999999
PR24  -4054.377051 -14454.643511 -20603.004490    134.768589
PR25  12679.086223  -2065.283267  22050.290527     49.681121
EOF
